{
  "type": "FeatureCollection",
  "features": [
    {
      "type": "Feature",
      "properties": {
        "norad_id": 30299,
        "name": "FENGYUN 1C DEB",
        "group": "fengyun-1c-debris",
        "lat": -32.27883602462161,
        "lon": 71.06421043510213,
        "alt_km": 804.0752775895126,
        "timestamp": "2025-12-18T23:35:49.335752+00:00",
        "meta_object_name": "FENGYUN 1C DEB",
        "meta_object_id": "1999-025ZL",
        "meta_epoch": "2025-12-18T03:34:15.289248",
        "meta_mean_motion": 14.07774232,
        "meta_eccentricity": 0.01030689,
        "meta_inclination": 99.0944,
        "meta_ra_of_asc_node": 64.4172,
        "meta_arg_of_pericenter": 352.5684,
        "meta_mean_anomaly": 68.7343,
        "meta_ephemeris_type": 0,
        "meta_classification_type": "U",
        "meta_norad_cat_id": 30299,
        "meta_element_set_no": 999,
        "meta_rev_at_epoch": 96366,
        "meta_bstar": 0.0012746717,
        "meta_mean_motion_dot": 2.22e-05,
        "meta_mean_motion_ddot": 0,
        "tle_line1": "1 30299U 99025ZL  25352.14878807  .00002220  00000+0  12747-2 0  9996",
        "tle_line2": "2 30299  99.0944  64.4172 0103068 352.5684  68.7343 14.07774232963663"
      },
      "geometry": {
        "type": "Point",
        "coordinates": [
          71.06421043510213,
          -32.27883602462161
        ]
      }
    },
    {
      "type": "Feature",
      "properties": {
        "norad_id": 30300,
        "name": "FENGYUN 1C DEB",
        "group": "fengyun-1c-debris",
        "lat": -28.270986966797533,
        "lon": -122.38274651649218,
        "alt_km": 786.614860572312,
        "timestamp": "2025-12-18T23:35:49.335763+00:00",
        "meta_object_name": "FENGYUN 1C DEB",
        "meta_object_id": "1999-025ZM",
        "meta_epoch": "2025-12-18T04:22:36.018048",
        "meta_mean_motion": 14.26891175,
        "meta_eccentricity": 0.0076171,
        "meta_inclination": 99.04,
        "meta_ra_of_asc_node": 61.7017,
        "meta_arg_of_pericenter": 278.3748,
        "meta_mean_anomaly": 139.4758,
        "meta_ephemeris_type": 0,
        "meta_classification_type": "U",
        "meta_norad_cat_id": 30300,
        "meta_element_set_no": 999,
        "meta_rev_at_epoch": 97062,
        "meta_bstar": 0.0016844973,
        "meta_mean_motion_dot": 4.171e-05,
        "meta_mean_motion_ddot": 0,
        "tle_line1": "1 30300U 99025ZM  25352.18236132  .00004171  00000+0  16845-2 0  9992",
        "tle_line2": "2 30300  99.0400  61.7017 0076171 278.3748 139.4758 14.26891175970628"
      },
      "geometry": {
        "type": "Point",
        "coordinates": [
          -122.38274651649218,
          -28.270986966797533
        ]
      }
    },
    {
      "type": "Feature",
      "properties": {
        "norad_id": 30301,
        "name": "FENGYUN 1C DEB",
        "group": "fengyun-1c-debris",
        "lat": -55.71799369311715,
        "lon": -48.589531504675556,
        "alt_km": 681.4981513544863,
        "timestamp": "2025-12-18T23:35:49.335773+00:00",
        "meta_object_name": "FENGYUN 1C DEB",
        "meta_object_id": "1999-025ZN",
        "meta_epoch": "2025-12-18T09:25:17.773248",
        "meta_mean_motion": 14.53171044,
        "meta_eccentricity": 0.00691093,
        "meta_inclination": 98.6343,
        "meta_ra_of_asc_node": 143.6816,
        "meta_arg_of_pericenter": 272.3449,
        "meta_mean_anomaly": 116.5999,
        "meta_ephemeris_type": 0,
        "meta_classification_type": "U",
        "meta_norad_cat_id": 30301,
        "meta_element_set_no": 999,
        "meta_rev_at_epoch": 97299,
        "meta_bstar": 0.003505761,
        "meta_mean_motion_dot": 0.00014961,
        "meta_mean_motion_ddot": 0,
        "tle_line1": "1 30301U 99025ZN  25352.39256682  .00014961  00000+0  35058-2 0  9993",
        "tle_line2": "2 30301  98.6343 143.6816 0069109 272.3449 116.5999 14.53171044972993"
      },
      "geometry": {
        "type": "Point",
        "coordinates": [
          -48.589531504675556,
          -55.71799369311715
        ]
      }
    },
    {
      "type": "Feature",
      "properties": {
        "norad_id": 30302,
        "name": "FENGYUN 1C DEB",
        "group": "fengyun-1c-debris",
        "lat": 19.010210408648696,
        "lon": 83.37689824216271,
        "alt_km": 812.2664738358817,
        "timestamp": "2025-12-18T23:35:49.335784+00:00",
        "meta_object_name": "FENGYUN 1C DEB",
        "meta_object_id": "1999-025ZP",
        "meta_epoch": "2025-12-18T05:51:11.231136",
        "meta_mean_motion": 14.1284744,
        "meta_eccentricity": 0.0105226,
        "meta_inclination": 98.554,
        "meta_ra_of_asc_node": 259.6981,
        "meta_arg_of_pericenter": 101.7934,
        "meta_mean_anomaly": 259.5065,
        "meta_ephemeris_type": 0,
        "meta_classification_type": "U",
        "meta_norad_cat_id": 30302,
        "meta_element_set_no": 999,
        "meta_rev_at_epoch": 96121,
        "meta_bstar": 0.0018248401,
        "meta_mean_motion_dot": 3.537e-05,
        "meta_mean_motion_ddot": 0,
        "tle_line1": "1 30302U 99025ZP  25352.24387999  .00003537  00000+0  18248-2 0  9993",
        "tle_line2": "2 30302  98.5540 259.6981 0105226 101.7934 259.5065 14.12847440961218"
      },
      "geometry": {
        "type": "Point",
        "coordinates": [
          83.37689824216271,
          19.010210408648696
        ]
      }
    },
    {
      "type": "Feature",
      "properties": {
        "norad_id": 30303,
        "name": "FENGYUN 1C DEB",
        "group": "fengyun-1c-debris",
        "lat": 36.75928621063166,
        "lon": 63.65204617435564,
        "alt_km": 840.1744811424387,
        "timestamp": "2025-12-18T23:35:49.335795+00:00",
        "meta_object_name": "FENGYUN 1C DEB",
        "meta_object_id": "1999-025ZQ",
        "meta_epoch": "2025-12-17T03:38:05.064000",
        "meta_mean_motion": 14.25876467,
        "meta_eccentricity": 0.00767505,
        "meta_inclination": 99.0204,
        "meta_ra_of_asc_node": 68.5822,
        "meta_arg_of_pericenter": 269.7011,
        "meta_mean_anomaly": 89.5373,
        "meta_ephemeris_type": 0,
        "meta_classification_type": "U",
        "meta_norad_cat_id": 30303,
        "meta_element_set_no": 999,
        "meta_rev_at_epoch": 97098,
        "meta_bstar": 0.0019789963,
        "meta_mean_motion_dot": 4.814e-05,
        "meta_mean_motion_ddot": 0,
        "tle_line1": "1 30303U 99025ZQ  25351.15144750  .00004814  00000+0  19790-2 0  9991",
        "tle_line2": "2 30303  99.0204  68.5822 0076750 269.7011  89.5373 14.25876467970985"
      },
      "geometry": {
        "type": "Point",
        "coordinates": [
          63.65204617435564,
          36.75928621063166
        ]
      }
    },
    {
      "type": "Feature",
      "properties": {
        "norad_id": 30304,
        "name": "FENGYUN 1C DEB",
        "group": "fengyun-1c-debris",
        "lat": -38.324697750050824,
        "lon": 72.71861843336774,
        "alt_km": 828.400024353954,
        "timestamp": "2025-12-18T23:35:49.335806+00:00",
        "meta_object_name": "FENGYUN 1C DEB",
        "meta_object_id": "1999-025ZR",
        "meta_epoch": "2025-12-18T10:12:26.700192",
        "meta_mean_motion": 14.15523113,
        "meta_eccentricity": 0.00734007,
        "meta_inclination": 99.0328,
        "meta_ra_of_asc_node": 64.9301,
        "meta_arg_of_pericenter": 32.7527,
        "meta_mean_anomaly": 327.8165,
        "meta_ephemeris_type": 0,
        "meta_classification_type": "U",
        "meta_norad_cat_id": 30304,
        "meta_element_set_no": 999,
        "meta_rev_at_epoch": 96899,
        "meta_bstar": 0.0011981926,
        "meta_mean_motion_dot": 2.359e-05,
        "meta_mean_motion_ddot": 0,
        "tle_line1": "1 30304U 99025ZR  25352.42530903  .00002359  00000+0  11982-2 0  9999",
        "tle_line2": "2 30304  99.0328  64.9301 0073400  32.7527 327.8165 14.15523113968995"
      },
      "geometry": {
        "type": "Point",
        "coordinates": [
          72.71861843336774,
          -38.324697750050824
        ]
      }
    },
    {
      "type": "Feature",
      "properties": {
        "norad_id": 30305,
        "name": "FENGYUN 1C DEB",
        "group": "fengyun-1c-debris",
        "lat": -68.32155904143562,
        "lon": 89.88251465661888,
        "alt_km": 1232.280097112567,
        "timestamp": "2025-12-18T23:35:49.335816+00:00",
        "meta_object_name": "FENGYUN 1C DEB",
        "meta_object_id": "1999-025ZS",
        "meta_epoch": "2025-12-18T12:06:00.706176",
        "meta_mean_motion": 13.60233281,
        "meta_eccentricity": 0.02658294,
        "meta_inclination": 98.588,
        "meta_ra_of_asc_node": 291.8041,
        "meta_arg_of_pericenter": 86.0378,
        "meta_mean_anomaly": 338.6441,
        "meta_ephemeris_type": 0,
        "meta_classification_type": "U",
        "meta_norad_cat_id": 30305,
        "meta_element_set_no": 999,
        "meta_rev_at_epoch": 93852,
        "meta_bstar": 0.00027087784,
        "meta_mean_motion_dot": 2.22e-06,
        "meta_mean_motion_ddot": 0,
        "tle_line1": "1 30305U 99025ZS  25352.50417484  .00000222  00000+0  27088-3 0  9999",
        "tle_line2": "2 30305  98.5880 291.8041 0265829  86.0378 338.6441 13.60233281938525"
      },
      "geometry": {
        "type": "Point",
        "coordinates": [
          89.88251465661888,
          -68.32155904143562
        ]
      }
    }
  ]
}